ATLAS CENTAUR R/B       
1 06155U 72065B   26024.50301674  .00002118  00000+0  29232-3 0  9999
2 06155  34.9998 204.6764 0033896 357.0426   3.0071 14.77544542834724
SL-8 R/B                
1 08459U 75112B   26024.47166102  .00000498  00000+0  17238-3 0  9997
2 08459  74.0609 100.2590 0016077 206.7534 153.2792 14.38179260625518
SL-3 R/B                
1 10114U 77057B   26024.47829431  .00018731  00000+0  40986-3 0  9994
2 10114  97.5716 194.5150 0008604  83.9459 276.2769 15.44155385661503
SEASAT 1                
1 10967U 78064A   26024.50201361  .00000709  00000+0  23679-3 0  9995
2 10967 108.0169  32.7641 0001248 285.7779  74.3229 14.46117398500122
SL-14 R/B               
1 11267U 79011B   26024.38046854  .00001308  00000+0  12685-3 0  9993
2 11267  82.5261 138.6055 0015499 200.5579 159.5019 14.91843040522178
SL-8 R/B                
1 11574U 79089B   26024.42443965  .00000639  00000+0  20109-3 0  9994
2 11574  74.0684 172.9761 0015904 352.4282   7.6631 14.42318655429723
SL-14 R/B               
1 11672U 80005B   26024.36440851  .00001291  00000+0  12840-3 0  9995
2 11672  82.5160 349.2685 0014614 316.0583  43.9473 14.90860630469882
SL-8 R/B                
1 12139U 81003B   26024.33951616  .00033831  00000+0  89763-3 0  9999
2 12139  82.9394 330.9808 0268070 333.7204  25.0622 15.09056819307987
SL-3 R/B                
1 12465U 81046B   26024.44516859  .00017690  00000+0  42934-3 0  9990
2 12465  81.2343 342.8079 0019537 167.6319 192.5407 15.40700070431619
SL-3 R/B                
1 12904U 81103B   26024.43497482  .00008268  00000+0  37270-3 0  9999
2 12904  81.1573 265.3347 0014439  74.4284 285.8539 15.20816417966504
SL-3 R/B                
1 13068U 82013B   26024.46230088  .00007252  00000+0  31898-3 0  9994
2 13068  81.1727 212.5850 0022269 331.1233  28.8765 15.21509725397626
SL-3 R/B                
1 13154U 82039B   26024.45638418  .00004148  00000+0  25250-3 0  9992
2 13154  81.1649 266.9362 0030031 109.1658 251.2822 15.09820789374966
