CCSDS_OMM_VERS = 2.0
CREATION_DATE  = 
ORIGINATOR     = 

OBJECT_NAME    = ATLAS CENTAUR R/B
OBJECT_ID      = 1972-065B
CENTER_NAME    = EARTH
REF_FRAME      = TEME
TIME_SYSTEM    = UTC
MEAN_ELEMENT_THEORY = SGP/SGP4

EPOCH          = 2026-01-24T12:04:20.646336
MEAN_MOTION    = 14.77544542
ECCENTRICITY   = .0033896
INCLINATION    = 34.9998
RA_OF_ASC_NODE = 204.6764
ARG_OF_PERICENTER = 357.0426
MEAN_ANOMALY   = 3.0071

EPHEMERIS_TYPE = 0
CLASSIFICATION_TYPE = U
NORAD_CAT_ID   = 6155
ELEMENT_SET_NO = 999
REV_AT_EPOCH   = 83472
BSTAR          = .29232E-3
MEAN_MOTION_DOT = .2118E-4
MEAN_MOTION_DDOT = 0

CCSDS_OMM_VERS = 2.0
CREATION_DATE  = 
ORIGINATOR     = 

OBJECT_NAME    = SL-8 R/B
OBJECT_ID      = 1975-112B
CENTER_NAME    = EARTH
REF_FRAME      = TEME
TIME_SYSTEM    = UTC
MEAN_ELEMENT_THEORY = SGP/SGP4

EPOCH          = 2026-01-24T11:19:11.512128
MEAN_MOTION    = 14.38179260
ECCENTRICITY   = .0016077
INCLINATION    = 74.0609
RA_OF_ASC_NODE = 100.2590
ARG_OF_PERICENTER = 206.7534
MEAN_ANOMALY   = 153.2792

EPHEMERIS_TYPE = 0
CLASSIFICATION_TYPE = U
NORAD_CAT_ID   = 8459
ELEMENT_SET_NO = 999
REV_AT_EPOCH   = 62551
BSTAR          = .17238E-3
MEAN_MOTION_DOT = .498E-5
MEAN_MOTION_DDOT = 0

CCSDS_OMM_VERS = 2.0
CREATION_DATE  = 
ORIGINATOR     = 

OBJECT_NAME    = SL-3 R/B
OBJECT_ID      = 1977-057B
CENTER_NAME    = EARTH
REF_FRAME      = TEME
TIME_SYSTEM    = UTC
MEAN_ELEMENT_THEORY = SGP/SGP4

EPOCH          = 2026-01-24T11:28:44.628384
MEAN_MOTION    = 15.44155385
ECCENTRICITY   = .0008604
INCLINATION    = 97.5716
RA_OF_ASC_NODE = 194.5150
ARG_OF_PERICENTER = 83.9459
MEAN_ANOMALY   = 276.2769

EPHEMERIS_TYPE = 0
CLASSIFICATION_TYPE = U
NORAD_CAT_ID   = 10114
ELEMENT_SET_NO = 999
REV_AT_EPOCH   = 66150
BSTAR          = .40986E-3
MEAN_MOTION_DOT = .18731E-3
MEAN_MOTION_DDOT = 0

CCSDS_OMM_VERS = 2.0
CREATION_DATE  = 
ORIGINATOR     = 

OBJECT_NAME    = SEASAT 1
OBJECT_ID      = 1978-064A
CENTER_NAME    = EARTH
REF_FRAME      = TEME
TIME_SYSTEM    = UTC
MEAN_ELEMENT_THEORY = SGP/SGP4

EPOCH          = 2026-01-24T12:02:53.975904
MEAN_MOTION    = 14.46117398
ECCENTRICITY   = .0001248
INCLINATION    = 108.0169
RA_OF_ASC_NODE = 32.7641
ARG_OF_PERICENTER = 285.7779
MEAN_ANOMALY   = 74.3229

EPHEMERIS_TYPE = 0
CLASSIFICATION_TYPE = U
NORAD_CAT_ID   = 10967
ELEMENT_SET_NO = 999
REV_AT_EPOCH   = 50012
BSTAR          = .23679E-3
MEAN_MOTION_DOT = .709E-5
MEAN_MOTION_DDOT = 0

CCSDS_OMM_VERS = 2.0
CREATION_DATE  = 
ORIGINATOR     = 

OBJECT_NAME    = SL-14 R/B
OBJECT_ID      = 1979-011B
CENTER_NAME    = EARTH
REF_FRAME      = TEME
TIME_SYSTEM    = UTC
MEAN_ELEMENT_THEORY = SGP/SGP4

EPOCH          = 2026-01-24T09:07:52.481856
MEAN_MOTION    = 14.91843040
ECCENTRICITY   = .0015499
INCLINATION    = 82.5261
RA_OF_ASC_NODE = 138.6055
ARG_OF_PERICENTER = 200.5579
MEAN_ANOMALY   = 159.5019

EPHEMERIS_TYPE = 0
CLASSIFICATION_TYPE = U
NORAD_CAT_ID   = 11267
ELEMENT_SET_NO = 999
REV_AT_EPOCH   = 52217
BSTAR          = .12685E-3
MEAN_MOTION_DOT = .1308E-4
MEAN_MOTION_DDOT = 0

CCSDS_OMM_VERS = 2.0
CREATION_DATE  = 
ORIGINATOR     = 

OBJECT_NAME    = SL-8 R/B
OBJECT_ID      = 1979-089B
CENTER_NAME    = EARTH
REF_FRAME      = TEME
TIME_SYSTEM    = UTC
MEAN_ELEMENT_THEORY = SGP/SGP4

EPOCH          = 2026-01-24T10:11:11.585760
MEAN_MOTION    = 14.42318655
ECCENTRICITY   = .0015904
INCLINATION    = 74.0684
RA_OF_ASC_NODE = 172.9761
ARG_OF_PERICENTER = 352.4282
MEAN_ANOMALY   = 7.6631

EPHEMERIS_TYPE = 0
CLASSIFICATION_TYPE = U
NORAD_CAT_ID   = 11574
ELEMENT_SET_NO = 999
REV_AT_EPOCH   = 42972
BSTAR          = .20109E-3
MEAN_MOTION_DOT = .639E-5
MEAN_MOTION_DDOT = 0

CCSDS_OMM_VERS = 2.0
CREATION_DATE  = 
ORIGINATOR     = 

OBJECT_NAME    = SL-14 R/B
OBJECT_ID      = 1980-005B
CENTER_NAME    = EARTH
REF_FRAME      = TEME
TIME_SYSTEM    = UTC
MEAN_ELEMENT_THEORY = SGP/SGP4

EPOCH          = 2026-01-24T08:44:44.895264
MEAN_MOTION    = 14.90860630
ECCENTRICITY   = .0014614
INCLINATION    = 82.5160
RA_OF_ASC_NODE = 349.2685
ARG_OF_PERICENTER = 316.0583
MEAN_ANOMALY   = 43.9473

EPHEMERIS_TYPE = 0
CLASSIFICATION_TYPE = U
NORAD_CAT_ID   = 11672
ELEMENT_SET_NO = 999
REV_AT_EPOCH   = 46988
BSTAR          = .1284E-3
MEAN_MOTION_DOT = .1291E-4
MEAN_MOTION_DDOT = 0

CCSDS_OMM_VERS = 2.0
CREATION_DATE  = 
ORIGINATOR     = 

OBJECT_NAME    = SL-8 R/B
OBJECT_ID      = 1981-003B
CENTER_NAME    = EARTH
REF_FRAME      = TEME
TIME_SYSTEM    = UTC
MEAN_ELEMENT_THEORY = SGP/SGP4

EPOCH          = 2026-01-24T08:08:54.196224
MEAN_MOTION    = 15.09056819
ECCENTRICITY   = .026807
INCLINATION    = 82.9394
RA_OF_ASC_NODE = 330.9808
ARG_OF_PERICENTER = 333.7204
MEAN_ANOMALY   = 25.0622

EPHEMERIS_TYPE = 0
CLASSIFICATION_TYPE = U
NORAD_CAT_ID   = 12139
ELEMENT_SET_NO = 999
REV_AT_EPOCH   = 30798
BSTAR          = .89763E-3
MEAN_MOTION_DOT = .33831E-3
MEAN_MOTION_DDOT = 0

CCSDS_OMM_VERS = 2.0
CREATION_DATE  = 
ORIGINATOR     = 

OBJECT_NAME    = SL-3 R/B
OBJECT_ID      = 1981-046B
CENTER_NAME    = EARTH
REF_FRAME      = TEME
TIME_SYSTEM    = UTC
MEAN_ELEMENT_THEORY = SGP/SGP4

EPOCH          = 2026-01-24T10:41:02.566176
MEAN_MOTION    = 15.40700070
ECCENTRICITY   = .0019537
INCLINATION    = 81.2343
RA_OF_ASC_NODE = 342.8079
ARG_OF_PERICENTER = 167.6319
MEAN_ANOMALY   = 192.5407

EPHEMERIS_TYPE = 0
CLASSIFICATION_TYPE = U
NORAD_CAT_ID   = 12465
ELEMENT_SET_NO = 999
REV_AT_EPOCH   = 43161
BSTAR          = .42934E-3
MEAN_MOTION_DOT = .1769E-3
MEAN_MOTION_DDOT = 0

CCSDS_OMM_VERS = 2.0
CREATION_DATE  = 
ORIGINATOR     = 

OBJECT_NAME    = SL-3 R/B
OBJECT_ID      = 1981-103B
CENTER_NAME    = EARTH
REF_FRAME      = TEME
TIME_SYSTEM    = UTC
MEAN_ELEMENT_THEORY = SGP/SGP4

EPOCH          = 2026-01-24T10:26:21.824448
MEAN_MOTION    = 15.20816417
ECCENTRICITY   = .0014439
INCLINATION    = 81.1573
RA_OF_ASC_NODE = 265.3347
ARG_OF_PERICENTER = 74.4284
MEAN_ANOMALY   = 285.8539

EPHEMERIS_TYPE = 0
CLASSIFICATION_TYPE = U
NORAD_CAT_ID   = 12904
ELEMENT_SET_NO = 999
REV_AT_EPOCH   = 96650
BSTAR          = .3727E-3
MEAN_MOTION_DOT = .8268E-4
MEAN_MOTION_DDOT = 0

CCSDS_OMM_VERS = 2.0
CREATION_DATE  = 
ORIGINATOR     = 

OBJECT_NAME    = SL-3 R/B
OBJECT_ID      = 1982-013B
CENTER_NAME    = EARTH
REF_FRAME      = TEME
TIME_SYSTEM    = UTC
MEAN_ELEMENT_THEORY = SGP/SGP4

EPOCH          = 2026-01-24T11:05:42.796032
MEAN_MOTION    = 15.21509725
ECCENTRICITY   = .0022269
INCLINATION    = 81.1727
RA_OF_ASC_NODE = 212.5850
ARG_OF_PERICENTER = 331.1233
MEAN_ANOMALY   = 28.8765

EPHEMERIS_TYPE = 0
CLASSIFICATION_TYPE = U
NORAD_CAT_ID   = 13068
ELEMENT_SET_NO = 999
REV_AT_EPOCH   = 39762
BSTAR          = .31898E-3
MEAN_MOTION_DOT = .7252E-4
MEAN_MOTION_DDOT = 0

CCSDS_OMM_VERS = 2.0
CREATION_DATE  = 
ORIGINATOR     = 

OBJECT_NAME    = SL-3 R/B
OBJECT_ID      = 1982-039B
CENTER_NAME    = EARTH
REF_FRAME      = TEME
TIME_SYSTEM    = UTC
MEAN_ELEMENT_THEORY = SGP/SGP4

EPOCH          = 2026-01-24T10:57:11.593152
MEAN_MOTION    = 15.09820789
ECCENTRICITY   = .0030031
INCLINATION    = 81.1649
RA_OF_ASC_NODE = 266.9362
ARG_OF_PERICENTER = 109.1658
MEAN_ANOMALY   = 251.2822

EPHEMERIS_TYPE = 0
CLASSIFICATION_TYPE = U
NORAD_CAT_ID   = 13154
ELEMENT_SET_NO = 999
REV_AT_EPOCH   = 37496
BSTAR          = .2525E-3
MEAN_MOTION_DOT = .4148E-4
MEAN_MOTION_DDOT = 0

